#aV2021 11 25  0  0  0.00000000     288 DD+AD WGS84 FIT  NGA
## 2185 345600.00000000   300.00000000 59543 0.0000000000000
+   32     1  2  3  4  5  6  7  8  9 10 11 12 13 14 15 16 17
+         18 19 20 21 22 23 24 25 26 27 28 29 30 31 32  0  0
+          0  0  0  0  0  0  0  0  0  0  0  0  0  0  0  0  0
+          0  0  0  0  0  0  0  0  0  0  0  0  0  0  0  0  0
+          0  0  0  0  0  0  0  0  0  0  0  0  0  0  0  0  0
++         2  2  2  2  2  2  2  2  2  2  2  2  2  2  2  2  2
++         2  2  2  2  2  2  2  2  2  2  2  2  2  2  2  0  0
++         0  0  0  0  0  0  0  0  0  0  0  0  0  0  0  0  0
++         0  0  0  0  0  0  0  0  0  0  0  0  0  0  0  0  0
++         0  0  0  0  0  0  0  0  0  0  0  0  0  0  0  0  0
%c cc cc ccc ccc cccc cccc cccc cccc ccccc ccccc ccccc ccccc
%c cc cc ccc ccc cccc cccc cccc cccc ccccc ccccc ccccc ccccc
%f  0.0000000  0.000000000  0.00000000000  0.000000000000000
%f  0.0000000  0.000000000  0.00000000000  0.000000000000000
%i    0    0    0    0      0      0      0      0         0
%i    0    0    0    0      0      0      0      0         0
/*      NGA, ST. LOUIS,MO.                                  
/*   EPHEMERIS COMPUTED FROM 2 DAYS OF DATA                 
/*   EPOCHA v7 SMOOTHER                                     
/*   G2139 IERS2010 SATIGS SATAPC                           
*  2021 11 25 19 25  0.00000000
P  1 -22098.394710 -13703.037317   5960.645683    500.949382                    
V  1  -4853.834085  -6384.391578 -30905.064207     -0.103789                    
P  2  10675.514368  19953.747338  14491.078704   -643.422519                    
V  2 -15196.575129  -8498.298376  24095.586185     -0.014609                    
P  3 -13338.331855  -8308.885005  21323.628898    -23.019255                    
V  3   5173.776388 -26779.977558  -7064.443190     -0.104716                    
P  4 -22686.106999  -2577.351362  13632.611117   -200.934635                    
V  4  15743.727574  -7449.434355  24717.273381      0.010384                    
P  5   6859.560489  21678.811887 -13764.286516    -62.288913                    
V  5  -4561.263993  16813.714652  24651.117310     -0.012832                    
P  6  -4226.359694  15065.919702  21517.667441    126.758055                    
V  6 -21076.464532 -17052.415989   7880.884136      0.094810                    
P  7 -19810.796305   -371.725502 -17544.193327    282.939940                    
V  7 -16406.988310 -16008.527472  17990.814171      0.050587                    
P  8 -14153.221351  -9641.464907 -20399.293150    -45.602227                    
V  8  23727.406606 -10095.090652 -11376.656376     -0.014362                    
P  9 -25331.127108   7272.852534   3352.149909   -361.376432                    
V  9   2968.209368  -4372.168204  31189.732969      0.004453                    
P 10  11598.451028 -20611.168143 -11659.663465   -254.270496                    
V 10   -223.521719  15270.141802 -27210.158746     -0.086338                    
P 11   7725.112592  20971.954836  14357.825125     17.446235                    
V 11 -14739.584643 -10938.471144  23880.209501     -0.022635                    
P 12  11900.589230  11031.812421  20799.549100   -131.607970                    
V 12  -7176.290694  25971.786105  -9422.326795     -0.055624                    
P 13   5854.380074  14126.711727 -21880.079005    220.018158                    
V 13 -26692.005832   6106.850685  -3070.862773      0.057129                    
P 14 -12791.092538  20112.054011 -11659.513551    -44.654950                    
V 14    618.614331 -15045.230089 -26690.623150     -0.066304                    
P 15  15823.388181   8666.090777 -19989.180953   -103.803048                    
V 15 -21299.414937  12247.382003 -11457.967078      0.028171                    
P 16  -2154.599247 -23504.533167 -11951.065140   -430.217342                    
V 16   6135.989170 -13822.081967  27088.883369     -0.063313                    
P 17 -20662.515976  13431.577309  10377.337433    538.803842                    
V 17 -12492.474286   1837.970970 -28441.217648      0.053934                    
P 18  18772.652430   -750.133105 -18818.697848    289.915979                    
V 18  17155.548226  16578.628235  16358.571663     -0.061141                    
P 19 -14042.992303  14954.564487  16511.216432     83.995588                    
V 19 -21250.304981   3619.478915 -21183.612079      0.049938                    
P 20   1719.583140  26471.008183  -3087.147230    517.943953                    
V 20  -3266.148374   3815.118456  30812.697851     -0.001826                    
P 21 -20965.101682 -16603.480839  -1950.156396    152.048680                    
V 21   4064.419037    -82.553816 -31217.909466      0.010839                    
P 22 -11760.485356 -16482.691869  17464.661994   -456.227555                    
V 22   3344.278486 -21665.675054 -18165.764633      0.090448                    
P 23  15008.709952 -10208.607145 -19379.860463     28.840585                    
V 23  -2293.555175  24502.645101 -14781.864648     -0.043116                    
P 24  22188.632203  14951.054338   1011.084261    270.403519                    
V 24   -609.149201   3608.093040 -30866.050019      0.032681                    
P 25  15411.215301  -1634.132186  21272.406339    246.192863                    
V 25  -4006.867828  27402.201030   5216.348399      0.058894                    
P 26   4777.907924 -25863.160505   2188.404250    158.912928                    
V 26   3348.327829   3322.307722  31312.673385      0.037472                    
P 27  -3058.486819 -14799.716711 -22001.196926   -223.567555                    
V 27  25921.780399  -9141.884724   2937.382636     -0.045706                    
P 28  -9486.026585  24517.078912  -3987.220785    455.681604                    
V 28   -775.925414  -6115.178394 -31301.818589     -0.076213                    
P 29  25495.526505  -2293.786415   7162.376069   -445.541913                    
V 29  -8223.592279   4395.949361  30446.427903     -0.051961                    
P 30 -12561.623117   9760.948925 -21218.212614   -494.344110                    
V 30 -20293.372912 -18079.201818   3448.222268     -0.031071                    
P 31   2776.037279 -16636.512509  20288.986233   -151.958894                    
V 31  20503.247721  16293.041822  10960.705445     -0.018928                    
P 32  16990.048187 -15935.816197  12705.665796    -26.628317                    
V 32  15875.050659  -3312.640049 -25795.494030     -0.049828                    
EOF
